SEEDS II (CO-66)        
1 32791U 08021J   26068.92109284  .00023758  00000+0  84213-3 0  9995
2 32791  97.7519  62.3611 0001448 359.2618   0.8619 15.29097235972108
STARLINK-35952          
1 66520U 25265E   26068.57496917  .00030098  00000+0  10985-2 0  9993
2 66520  43.0004 278.7826 0000641 301.9847  58.0942 15.27588666 17094
